{"type": "FeatureCollection", "features": [ {"type": "Feature", "properties": {"norad_id": 39019, "name": "PLEIADES 1B", "group": "resource", "lat": -81.75950170164147, "lon": 151.1045770392111, "alt_km": 706.0113236078332, "timestamp": "2025-12-21T07:34:34.197479+00:00", "meta": {"OBJECT_NAME": "PLEIADES 1B", "OBJECT_ID": "2012-068A", "EPOCH": "2025-12-20T22:06:19.271232", "MEAN_MOTION": 14.58558975, "ECCENTRICITY": 0.00011862, "INCLINATION": 98.1792, "RA_OF_ASC_NODE": 67.4439, "ARG_OF_PERICENTER": 84.9945, "MEAN_ANOMALY": 275.1389, "EPHEMERIS_TYPE": 0, "CLASSIFICATION_TYPE": "U", "NORAD_CAT_ID": 39019, "ELEMENT_SET_NO": 999, "REV_AT_EPOCH": 69486, "BSTAR": 2.8736313e-05, "MEAN_MOTION_DOT": 8.8e-07, "MEAN_MOTION_DDOT": 0}, "tle": {"line1": "1 39019U 12068A   25354.92105638  .00000088  00000+0  28736-4 0  9997", "line2": "2 39019  98.1792  67.4439 0001186  84.9945 275.1389 14.58558975694863"}}, "geometry": {"type": "Point", "coordinates": [151.1045770392111, -81.75950170164147]}}, {"type": "Feature", "properties": {"norad_id": 39030, "name": "GOKTURK 2", "group": "resource", "lat": -75.74035961228894, "lon": -131.3423882553127, "alt_km": 652.4239148294, "timestamp": "2025-12-21T07:34:34.197488+00:00", "meta": {"OBJECT_NAME": "GOKTURK 2", "OBJECT_ID": "2012-073A", "EPOCH": "2025-12-20T22:09:44.928288", "MEAN_MOTION": 14.75301722, "ECCENTRICITY": 0.00012804, "INCLINATION": 97.6886, "RA_OF_ASC_NODE": 196.1742, "ARG_OF_PERICENTER": 107.1047, "MEAN_ANOMALY": 253.0303, "EPHEMERIS_TYPE": 0, "CLASSIFICATION_TYPE": "U", "NORAD_CAT_ID": 39030, "ELEMENT_SET_NO": 999, "REV_AT_EPOCH": 69822, "BSTAR": 9.5800001e-05, "MEAN_MOTION_DOT": 6.02e-06, "MEAN_MOTION_DDOT": 0}, "tle": {"line1": "1 39030U 12073A   25354.92343667  .00000602  00000+0  95800-4 0  9990", "line2": "2 39030  97.6886 196.1742 0001280 107.1047 253.0303 14.75301722698227"}}, "geometry": {"type": "Point", "coordinates": [-131.3423882553127, -75.74035961228894]}}, {"type": "Feature", "properties": {"norad_id": 39084, "name": "LANDSAT 8", "group": "resource", "lat": 35.988398143031986, "lon": 57.24638324395129, "alt_km": 699.5732166335192, "timestamp": "2025-12-21T07:34:34.197497+00:00", "meta": {"OBJECT_NAME": "LANDSAT 8", "OBJECT_ID": "2013-008A", "EPOCH": "2025-12-20T21:31:16.161312", "MEAN_MOTION": 14.57110164, "ECCENTRICITY": 0.00010802, "INCLINATION": 98.2062, "RA_OF_ASC_NODE": 62.8494, "ARG_OF_PERICENTER": 90.9194, "MEAN_ANOMALY": 269.2129, "EPHEMERIS_TYPE": 0, "CLASSIFICATION_TYPE": "U", "NORAD_CAT_ID": 39084, "ELEMENT_SET_NO": 999, "REV_AT_EPOCH": 67193, "BSTAR": 7.6238618e-05, "MEAN_MOTION_DOT": 2.98e-06, "MEAN_MOTION_DDOT": 0}, "tle": {"line1": "1 39084U 13008A   25354.89671483  .00000298  00000+0  76239-4 0  9990", "line2": "2 39084  98.2062  62.8494 0001080  90.9194 269.2129 14.57110164671934"}}, "geometry": {"type": "Point", "coordinates": [57.24638324395129, 35.988398143031986]}}, {"type": "Feature", "properties": {"norad_id": 39086, "name": "SARAL", "group": "resource", "lat": -8.500339101218305, "lon": -179.57769063817136, "alt_km": 786.8869079581391, "timestamp": "2025-12-21T07:34:34.197506+00:00", "meta": {"OBJECT_NAME": "SARAL", "OBJECT_ID": "2013-009A", "EPOCH": "2025-12-20T21:33:35.621280", "MEAN_MOTION": 14.32759617, "ECCENTRICITY": 0.00029626, "INCLINATION": 98.5502, "RA_OF_ASC_NODE": 178.7222, "ARG_OF_PERICENTER": 93.3653, "MEAN_ANOMALY": 266.787, "EPHEMERIS_TYPE": 0, "CLASSIFICATION_TYPE": "U", "NORAD_CAT_ID": 39086, "ELEMENT_SET_NO": 999, "REV_AT_EPOCH": 67007, "BSTAR": 4.3767718e-05, "MEAN_MOTION_DOT": 7.6e-07, "MEAN_MOTION_DDOT": 0}, "tle": {"line1": "1 39086U 13009A   25354.89832895  .00000076  00000+0  43768-4 0  9994", "line2": "2 39086  98.5502 178.7222 0002962  93.3653 266.7870 14.32759617670075"}}, "geometry": {"type": "Point", "coordinates": [-179.57769063817136, -8.500339101218305]}}, {"type": "Feature", "properties": {"norad_id": 39150, "name": "GAOFEN-1", "group": "resource", "lat": 37.452808577370554, "lon": 59.69231572545289, "alt_km": 635.2259688634949, "timestamp": "2025-12-21T07:34:34.197515+00:00", "meta": {"OBJECT_NAME": "GAOFEN-1", "OBJECT_ID": "2013-018A", "EPOCH": "2025-12-20T23:16:22.017792", "MEAN_MOTION": 14.76492743, "ECCENTRICITY": 0.00184196, "INCLINATION": 97.9324, "RA_OF_ASC_NODE": 65.4838, "ARG_OF_PERICENTER": 118.0477, "MEAN_ANOMALY": 242.2598, "EPHEMERIS_TYPE": 0, "CLASSIFICATION_TYPE": "U", "NORAD_CAT_ID": 39150, "ELEMENT_SET_NO": 999, "REV_AT_EPOCH": 68194, "BSTAR": 7.2303344e-05, "MEAN_MOTION_DOT": 4.54e-06, "MEAN_MOTION_DDOT": 0}, "tle": {"line1": "1 39150U 13018A   25354.96969928  .00000454  00000+0  72303-4 0  9999", "line2": "2 39150  97.9324  65.4838 0018419 118.0477 242.2598 14.76492743681946"}}, "geometry": {"type": "Point", "coordinates": [59.69231572545289, 37.452808577370554]}}, {"type": "Feature", "properties": {"norad_id": 39160, "name": "VNREDSAT 1", "group": "resource", "lat": 74.66323985157689, "lon": -99.13416791114402, "alt_km": 669.3903897740556, "timestamp": "2025-12-21T07:34:34.197524+00:00", "meta": {"OBJECT_NAME": "VNREDSAT 1", "OBJECT_ID": "2013-021B", "EPOCH": "2025-12-20T22:54:38.671200", "MEAN_MOTION": 14.64933982, "ECCENTRICITY": 0.00012063, "INCLINATION": 97.9368, "RA_OF_ASC_NODE": 49.9418, "ARG_OF_PERICENTER": 81.0825, "MEAN_ANOMALY": 279.0515, "EPHEMERIS_TYPE": 0, "CLASSIFICATION_TYPE": "U", "NORAD_CAT_ID": 39160, "ELEMENT_SET_NO": 999, "REV_AT_EPOCH": 67419, "BSTAR": 9.0804064e-05, "MEAN_MOTION_DOT": 4.4e-06, "MEAN_MOTION_DDOT": 0}, "tle": {"line1": "1 39160U 13021B   25354.95461425  .00000440  00000+0  90804-4 0  9993", "line2": "2 39160  97.9368  49.9418 0001206  81.0825 279.0515 14.64933982674196"}}, "geometry": {"type": "Point", "coordinates": [-99.13416791114402, 74.66323985157689]}}, {"type": "Feature", "properties": {"norad_id": 39227, "name": "ARIRANG-5 (KOMPSAT-5)", "group": "resource", "lat": -37.75741224433143, "lon": -174.55552583142597, "alt_km": 558.6666830052218, "timestamp": "2025-12-21T07:34:34.197534+00:00", "meta": {"OBJECT_NAME": "ARIRANG-5 (KOMPSAT-5)", "OBJECT_ID": "2013-042A", "EPOCH": "2025-12-20T22:10:06.006432", "MEAN_MOTION": 15.04541477, "ECCENTRICITY": 0.00034383, "INCLINATION": 97.6154, "RA_OF_ASC_NODE": 179.1104, "ARG_OF_PERICENTER": 36.2736, "MEAN_ANOMALY": 323.8722, "EPHEMERIS_TYPE": 0, "CLASSIFICATION_TYPE": "U", "NORAD_CAT_ID": 39227, "ELEMENT_SET_NO": 999, "REV_AT_EPOCH": 67705, "BSTAR": 0.00015868078, "MEAN_MOTION_DOT": 2.163e-05, "MEAN_MOTION_DDOT": 0}, "tle": {"line1": "1 39227U 13042A   25354.92368063  .00002163  00000+0  15868-3 0  9991", "line2": "2 39227  97.6154 179.1104 0003438  36.2736 323.8722 15.04541477677055"}}, "geometry": {"type": "Point", "coordinates": [-174.55552583142597, -37.75741224433143]}}, {"type": "Feature", "properties": {"norad_id": 39418, "name": "SKYSAT-A", "group": "resource", "lat": -14.048178313952379, "lon": -136.60246117309498, "alt_km": 521.4004692503804, "timestamp": "2025-12-21T07:34:34.197543+00:00", "meta": {"OBJECT_NAME": "SKYSAT-A", "OBJECT_ID": "2013-066C", "EPOCH": "2025-12-20T21:11:15.667872", "MEAN_MOTION": 15.11658266, "ECCENTRICITY": 0.00213232, "INCLINATION": 97.4095, "RA_OF_ASC_NODE": 44.8439, "ARG_OF_PERICENTER": 207.0168, "MEAN_ANOMALY": 152.9954, "EPHEMERIS_TYPE": 0, "CLASSIFICATION_TYPE": "U", "NORAD_CAT_ID": 39418, "ELEMENT_SET_NO": 999, "REV_AT_EPOCH": 66153, "BSTAR": 0.00016583065, "MEAN_MOTION_DOT": 2.771e-05, "MEAN_MOTION_DDOT": 0}, "tle": {"line1": "1 39418U 13066C   25354.88282023  .00002771  00000+0  16583-3 0  9995", "line2": "2 39418  97.4095  44.8439 0021323 207.0168 152.9954 15.11658266661535"}}, "geometry": {"type": "Point", "coordinates": [-136.60246117309498, -14.048178313952379]}}, {"type": "Feature", "properties": {"norad_id": 39419, "name": "DUBAISAT-2", "group": "resource", "lat": -55.708898755876966, "lon": 154.4042398711686, "alt_km": 543.7876126089295, "timestamp": "2025-12-21T07:34:34.197552+00:00", "meta": {"OBJECT_NAME": "DUBAISAT-2", "OBJECT_ID": "2013-066D", "EPOCH": "2025-12-20T22:34:12.848736", "MEAN_MOTION": 15.08426596, "ECCENTRICITY": 0.00100101, "INCLINATION": 97.4441, "RA_OF_ASC_NODE": 345.0947, "ARG_OF_PERICENTER": 289.3318, "MEAN_ANOMALY": 70.6828, "EPHEMERIS_TYPE": 0, "CLASSIFICATION_TYPE": "U", "NORAD_CAT_ID": 39419, "ELEMENT_SET_NO": 999, "REV_AT_EPOCH": 65950, "BSTAR": 0.00024528902, "MEAN_MOTION_DOT": 3.76e-05, "MEAN_MOTION_DDOT": 0}, "tle": {"line1": "1 39419U 13066D   25354.94042649  .00003760  00000+0  24529-3 0  9999", "line2": "2 39419  97.4441 345.0947 0010010 289.3318  70.6828 15.08426596659507"}}, "geometry": {"type": "Point", "coordinates": [154.4042398711686, -55.708898755876966]}}, {"type": "Feature", "properties": {"norad_id": 39574, "name": "GPM-CORE", "group": "resource", "lat": 60.28252943176122, "lon": -121.09386494427548, "alt_km": 432.0716246423308, "timestamp": "2025-12-21T07:34:34.197561+00:00", "meta": {"OBJECT_NAME": "GPM-CORE", "OBJECT_ID": "2014-009C", "EPOCH": "2025-12-20T21:56:07.332864", "MEAN_MOTION": 15.44580494, "ECCENTRICITY": 0.00093375, "INCLINATION": 64.9718, "RA_OF_ASC_NODE": 185.3081, "ARG_OF_PERICENTER": 248.4407, "MEAN_ANOMALY": 111.5739, "EPHEMERIS_TYPE": 0, "CLASSIFICATION_TYPE": "U", "NORAD_CAT_ID": 39574, "ELEMENT_SET_NO": 999, "REV_AT_EPOCH": 67027, "BSTAR": 0.00012456087, "MEAN_MOTION_DOT": 5.576e-05, "MEAN_MOTION_DDOT": 0}, "tle": {"line1": "1 39574U 14009C   25354.91397376  .00005576  00000+0  12456-3 0  9999", "line2": "2 39574  64.9718 185.3081 0009337 248.4407 111.5739 15.44580494670275"}}, "geometry": {"type": "Point", "coordinates": [-121.09386494427548, 60.28252943176122]}}]}